{
"type": "FeatureCollection",
"name": "CanterasArchivo2",
"crs": { "type": "name", "properties": { "name": "urn:ogc:def:crs:OGC:1.3:CRS84" } },
"features": [
{ "type": "Feature", "properties": { "fid": 1 }, "geometry": { "type": "Polygon", "coordinates": [ [ [ -96.705764314282021, 17.066637904619103 ], [ -96.705797852158966, 17.066685996120739 ], [ -96.705831390035911, 17.066753123821037 ], [ -96.705845014798456, 17.066800213387435 ], [ -96.705845014798456, 17.066800213387435 ], [ -96.705831390035911, 17.066864335331086 ], [ -96.705793659924353, 17.066909421059528 ], [ -96.705793659924353, 17.066909421059528 ], [ -96.705731824463712, 17.066942483920119 ], [ -96.705630162774241, 17.066973542965655 ], [ -96.705458281154876, 17.067023638189486 ], [ -96.70541007045675, 17.06702163438079 ], [ -96.705387013166373, 17.067053695317334 ], [ -96.705338802468248, 17.067102788615731 ], [ -96.705294784004735, 17.067085756248368 ], [ -96.705157488320978, 17.066717055208947 ], [ -96.705178449494085, 17.066707036148802 ], [ -96.705239236896048, 17.066732083798168 ], [ -96.705298976239362, 17.066754125726835 ], [ -96.705388061224994, 17.066779173369877 ], [ -96.705388061224994, 17.066779173369877 ], [ -96.705490770973171, 17.066777169558556 ], [ -96.705606057425186, 17.066745108574512 ], [ -96.705699334645445, 17.066665957996562 ], [ -96.705736016698339, 17.066631893180531 ], [ -96.705753833695468, 17.066628887461174 ], [ -96.705764314282021, 17.066637904619103 ] ] ] } },
{ "type": "Feature", "properties": { "fid": 2 }, "geometry": { "type": "Polygon", "coordinates": [ [ [ -96.706250089468426, 17.066446039442393 ], [ -96.70611803407796, 17.066485113828577 ], [ -96.705932527696078, 17.066548233973602 ], [ -96.705830866006565, 17.066616363629986 ], [ -96.705824577654653, 17.066648424636149 ], [ -96.70587802864604, 17.066748615244908 ], [ -96.705918902933561, 17.066821754355338 ], [ -96.705915758757584, 17.066834779125418 ], [ -96.706014276271134, 17.06683177340933 ], [ -96.706037333561525, 17.066833777220065 ], [ -96.706055150558655, 17.066861830568076 ], [ -96.706208167122242, 17.06683177340933 ], [ -96.706217599650117, 17.066812737206284 ], [ -96.706217599650117, 17.066812737206284 ], [ -96.706201878770329, 17.066770657171613 ], [ -96.706310876870418, 17.066743605715747 ], [ -96.706315069105031, 17.066699521853337 ], [ -96.706287819579984, 17.066683491355327 ], [ -96.706287819579984, 17.066683491355327 ], [ -96.706284675404049, 17.066523186299563 ], [ -96.706290963755961, 17.066466077590178 ], [ -96.706250089468426, 17.066446039442393 ] ] ] } },
{ "type": "Feature", "properties": { "fid": 3 }, "geometry": { "type": "Polygon", "coordinates": [ [ [ -96.70597777658962, 17.066979882317675 ], [ -96.705974450042262, 17.066954005824709 ], [ -96.705848683003708, 17.066918939156356 ], [ -96.705792087836357, 17.067004101053783 ], [ -96.705792087836357, 17.067004101053783 ], [ -96.70535819155333, 17.067102287663772 ], [ -96.705376008550459, 17.067138356201404 ], [ -96.705979690335525, 17.066991076295519 ], [ -96.70597777658962, 17.066979882317675 ] ] ] } },
{ "type": "Feature", "properties": { "fid": 4 }, "geometry": { "type": "Polygon", "coordinates": [ [ [ -96.706233320529975, 17.066864836283681 ], [ -96.706222839943422, 17.066836782936122 ], [ -96.706075063673126, 17.066871849619908 ], [ -96.706084496201015, 17.066901906772202 ], [ -96.706233320529975, 17.066864836283681 ] ] ] } },
{ "type": "Feature", "properties": { "fid": 5 }, "geometry": { "type": "Polygon", "coordinates": [ [ [ -96.70610964960872, 17.067198470415303 ], [ -96.70610964960872, 17.067198470415303 ], [ -96.706088688435642, 17.0671183181258 ], [ -96.705852467207151, 17.067174582305288 ], [ -96.70587069223545, 17.067211495159093 ], [ -96.705939864106682, 17.067195464705069 ], [ -96.705954895866199, 17.067231891033103 ], [ -96.70610964960872, 17.067198470415303 ] ] ] } },
{ "type": "Feature", "properties": { "fid": 6 }, "geometry": { "type": "Polygon", "coordinates": [ [ [ -96.706343366688728, 17.06714737333472 ], [ -96.706288867638662, 17.067158394274848 ], [ -96.706316117163681, 17.067266599834312 ], [ -96.706169388952034, 17.067300664534486 ], [ -96.706205022946278, 17.067420892838356 ], [ -96.706141091368352, 17.067437925175142 ], [ -96.706154716130897, 17.067476999353651 ], [ -96.706279435110787, 17.067460968922429 ], [ -96.706307732694441, 17.06754613057252 ], [ -96.706171485069348, 17.067576187616208 ], [ -96.706168520564333, 17.067584617699289 ], [ -96.706164243793594, 17.067546126762693 ], [ -96.706106079711631, 17.067558101720746 ], [ -96.706120130195288, 17.067628286480485 ], [ -96.706011132095199, 17.067649326402318 ], [ -96.705986330131111, 17.067575208803675 ], [ -96.705940996361349, 17.067591460532459 ], [ -96.705962397367742, 17.067657341610001 ], [ -96.705999160443298, 17.067780493798853 ], [ -96.706429831527714, 17.06768739863578 ], [ -96.706343366688728, 17.06714737333472 ] ] ] } },
{ "type": "Feature", "properties": { "fid": 7 }, "geometry": { "type": "Polygon", "coordinates": [ [ [ -96.705877963142342, 17.067790844862518 ], [ -96.705832438094589, 17.067609250358682 ], [ -96.70582346409229, 17.067567921929694 ], [ -96.705731824463712, 17.067589212333637 ], [ -96.705747479839829, 17.06765158067952 ], [ -96.705784227396464, 17.06764331499631 ], [ -96.705797262625921, 17.067728226088057 ], [ -96.70577420533553, 17.06773323559079 ], [ -96.705778397570143, 17.067797357213859 ], [ -96.705543108402196, 17.067851960766134 ], [ -96.705541012284883, 17.06785797216541 ], [ -96.705550772331165, 17.067885587027515 ], [ -96.705881107318305, 17.067809880965793 ], [ -96.705877963142342, 17.067790844862518 ] ] ] } },
{ "type": "Feature", "properties": { "fid": 8 }, "geometry": { "type": "Polygon", "coordinates": [ [ [ -96.706090260523567, 17.067417887131704 ], [ -96.706075587702429, 17.067352763475679 ], [ -96.705917330845551, 17.06739183767202 ], [ -96.705938537218145, 17.067454283111218 ], [ -96.706090260523567, 17.067417887131704 ] ] ] } },
{ "type": "Feature", "properties": { "fid": 9 }, "geometry": { "type": "Polygon", "coordinates": [ [ [ -96.705881335409586, 17.067435999916338 ], [ -96.705861783736864, 17.067352763475679 ], [ -96.705732872522347, 17.067372801526112 ], [ -96.705725660954911, 17.067348753793382 ], [ -96.705668940944406, 17.067368793916195 ], [ -96.705714007466582, 17.067531102048861 ], [ -96.705806236628163, 17.067508058310228 ], [ -96.705791563807011, 17.067457963216427 ], [ -96.705881335409586, 17.067435999916338 ] ] ] } },
{ "type": "Feature", "properties": { "fid": 10 }, "geometry": { "type": "Polygon", "coordinates": [ [ [ -96.70535236172708, 17.067105042899556 ], [ -96.705307295204946, 17.067110052419007 ], [ -96.705347121433817, 17.067206235166534 ], [ -96.705356553961707, 17.067241301780911 ], [ -96.70534292919919, 17.067411625242695 ], [ -96.705408956894416, 17.06761400938932 ], [ -96.705482321000247, 17.067592969463508 ], [ -96.705357602020342, 17.067126082880375 ], [ -96.70535236172708, 17.067105042899556 ] ] ] } },
{ "type": "Feature", "properties": { "fid": 11 }, "geometry": { "type": "Polygon", "coordinates": [ [ [ -96.705547300636852, 17.067884522509885 ], [ -96.705533675874349, 17.067851459816183 ], [ -96.705546252578216, 17.067837433217086 ], [ -96.70552529140511, 17.067774313508096 ], [ -96.705512714701243, 17.067721212784004 ], [ -96.705487561293552, 17.067714199479692 ], [ -96.70545716759257, 17.067734237491315 ], [ -96.705426773891574, 17.067685144359025 ], [ -96.705386947662703, 17.067684142458234 ], [ -96.705447735064652, 17.067912074750158 ], [ -96.705447735064652, 17.067912074750158 ], [ -96.705547300636852, 17.067884522509885 ] ] ] } },
{ "type": "Feature", "properties": { "fid": 12 }, "geometry": { "type": "Polygon", "coordinates": [ [ [ -96.705308343263582, 17.067138606677354 ], [ -96.705264324800083, 17.067153635232618 ], [ -96.705308343263582, 17.0672939016901 ], [ -96.705303102970319, 17.067349006340987 ], [ -96.705336640847278, 17.067404110975598 ], [ -96.705351313668444, 17.067239798926138 ], [ -96.705308343263582, 17.067138606677354 ] ] ] } },
{ "type": "Feature", "properties": { "fid": 13 }, "geometry": { "type": "Polygon", "coordinates": [ [ [ -96.705239171392392, 17.066476848093757 ], [ -96.705320919967463, 17.06646783092804 ], [ -96.705438302536763, 17.066484863351803 ], [ -96.705479176824284, 17.066479853815565 ], [ -96.705569309868608, 17.066486867166272 ], [ -96.705682500203309, 17.066573031167621 ], [ -96.70570136525906, 17.066626132218413 ], [ -96.705587126865723, 17.066699271376844 ], [ -96.705487561293538, 17.066713298061487 ], [ -96.705434110302164, 17.066752372391715 ], [ -96.705297862677028, 17.066703279001132 ], [ -96.70518676845964, 17.066622124592463 ], [ -96.705122836881699, 17.066577038794623 ], [ -96.705038992189358, 17.066385674509227 ], [ -96.705168951462511, 17.066377659246918 ], [ -96.705204585456769, 17.066462821391344 ], [ -96.705239171392392, 17.066476848093757 ] ] ] } },
{ "type": "Feature", "properties": { "fid": 14 }, "geometry": { "type": "Polygon", "coordinates": [ [ [ -96.705705557493744, 17.066616614106628 ], [ -96.705687740496614, 17.066567520680334 ], [ -96.705687740496614, 17.066567520680334 ], [ -96.7055703579273, 17.06647835095465 ], [ -96.705689836613914, 17.066403207894311 ], [ -96.705817237510658, 17.066297643050248 ], [ -96.705863480783151, 17.066142828616144 ], [ -96.705930890104511, 17.066158742262012 ], [ -96.705945562925649, 17.06648035476918 ], [ -96.705945562925649, 17.06648035476918 ], [ -96.705705557493744, 17.066616614106628 ] ] ] } },
{ "type": "Feature", "properties": { "fid": 15 }, "geometry": { "type": "Polygon", "coordinates": [ [ [ -96.705922505635257, 17.066132692626578 ], [ -96.705926697869884, 17.065659790920396 ], [ -96.705895256110253, 17.065375247790993 ], [ -96.705555685106148, 17.065387270748896 ], [ -96.705568261810029, 17.065487462034678 ], [ -96.705698221083182, 17.065527538533928 ], [ -96.705798834714045, 17.065621718273295 ], [ -96.705868006585249, 17.065749962948352 ], [ -96.705872863476131, 17.066098931016867 ], [ -96.705872193283781, 17.06612171755695 ], [ -96.705922505635257, 17.066132692626578 ] ] ] } },
{ "type": "Feature", "properties": { "fid": 16 }, "geometry": { "type": "Polygon", "coordinates": [ [ [ -96.705538916167697, 17.065474437170561 ], [ -96.705533675874406, 17.06538125927004 ], [ -96.70540790883588, 17.065393282227557 ], [ -96.705346073375253, 17.065459408480073 ], [ -96.705171047579924, 17.065547576780318 ], [ -96.70505995336255, 17.065583645618414 ], [ -96.704991829549982, 17.06561871253766 ], [ -96.704970868376904, 17.06567782532947 ], [ -96.704970868376904, 17.065678827241037 ], [ -96.704961435849015, 17.065794047035052 ], [ -96.704982397022093, 17.066024486409688 ], [ -96.70505261695196, 17.066020478770831 ], [ -96.70505995336255, 17.065930306873568 ], [ -96.705105019884684, 17.065818092896134 ], [ -96.705216114102058, 17.065683836798772 ], [ -96.705355505903142, 17.065541565306628 ], [ -96.705538916167697, 17.065474437170561 ] ] ] } },
{ "type": "Feature", "properties": { "fid": 17 }, "geometry": { "type": "Polygon", "coordinates": [ [ [ -96.705841364435429, 17.065773887724507 ], [ -96.705831981742463, 17.065739037722029 ], [ -96.705791498303469, 17.065675821506328 ], [ -96.705735951194782, 17.065600678122873 ], [ -96.705661539030288, 17.065547576780318 ], [ -96.705615424449476, 17.065538559569706 ], [ -96.705599703569661, 17.065866184609003 ], [ -96.70566887544085, 17.065866184609003 ], [ -96.705682500203366, 17.065844142575486 ], [ -96.70575062401592, 17.065878207535295 ], [ -96.705827132297728, 17.065895240012868 ], [ -96.705842704820142, 17.065893852156119 ], [ -96.705841364435429, 17.065773887724507 ] ] ] } },
{ "type": "Feature", "properties": { "fid": 18 }, "geometry": { "type": "Polygon", "coordinates": [ [ [ -96.705601799686974, 17.065719905610532 ], [ -96.705611232214849, 17.065541565306628 ], [ -96.705526339463844, 17.065534551920411 ], [ -96.705381707369511, 17.065570620761019 ], [ -96.705425725832995, 17.065723913255862 ], [ -96.705601799686974, 17.065719905610532 ] ] ] } },
{ "type": "Feature", "properties": { "fid": 19 }, "geometry": { "type": "Polygon", "coordinates": [ [ [ -96.70535026560988, 17.065585649442554 ], [ -96.705351313668515, 17.065586651354611 ], [ -96.705408956894516, 17.065725917078488 ], [ -96.70544459088876, 17.06572992472368 ], [ -96.705447735064723, 17.065850154039428 ], [ -96.70534397725794, 17.065854161681955 ], [ -96.70527690150405, 17.065865182698449 ], [ -96.70514379805492, 17.065934314514372 ], [ -96.705114452412559, 17.065918283950634 ], [ -96.70511969270585, 17.065864180787891 ], [ -96.705238123333814, 17.065695859736799 ], [ -96.705238123333814, 17.065695859736799 ], [ -96.70535026560988, 17.065585649442554 ] ] ] } },
{ "type": "Feature", "properties": { "fid": 20 }, "geometry": { "type": "Polygon", "coordinates": [ [ [ -96.705048424717347, 17.066023484499979 ], [ -96.704985541198056, 17.066025488319397 ], [ -96.70503689607213, 17.066379162108607 ], [ -96.705167903403975, 17.066376156385182 ], [ -96.705108164060661, 17.06628197702651 ], [ -96.705063097538485, 17.066164753715821 ], [ -96.705051568893296, 17.066061557065133 ], [ -96.705048424717347, 17.066023484499979 ] ] ] } },
{ "type": "Feature", "properties": { "fid": 21 }, "geometry": { "type": "Polygon", "coordinates": [ [ [ -96.705845385589569, 17.066116356018107 ], [ -96.705844715397205, 17.065970254084633 ], [ -96.705816651711217, 17.065947339346383 ], [ -96.705786782039567, 17.065944834571066 ], [ -96.705729662842899, 17.065957358447317 ], [ -96.705675687822136, 17.065974390917663 ], [ -96.705541536314357, 17.066108646806022 ], [ -96.705503806202799, 17.066132692626571 ], [ -96.705543045063195, 17.066224256987322 ], [ -96.7055069384501, 17.066243692565632 ], [ -96.705428525944512, 17.066283904106957 ], [ -96.70545349938736, 17.066313036181963 ], [ -96.705507998437398, 17.066361127767301 ], [ -96.705463979973928, 17.06641322697077 ], [ -96.705422057627729, 17.066439276567046 ], [ -96.705484941146992, 17.066445288011828 ], [ -96.705589747012482, 17.06641322697077 ], [ -96.705707129581796, 17.066327062895631 ], [ -96.705799358743391, 17.066222864426045 ], [ -96.705845385589569, 17.066116356018107 ] ] ] } },
{ "type": "Feature", "properties": { "fid": 22 }, "geometry": { "type": "Polygon", "coordinates": [ [ [ -96.705500662026793, 17.066359123951493 ], [ -96.705459787739244, 17.066404209801977 ], [ -96.705415769275746, 17.066430259399517 ], [ -96.705315155644925, 17.066405211709643 ], [ -96.705147466260158, 17.066266948401044 ], [ -96.705094015268784, 17.066111652533753 ], [ -96.705095063327448, 17.065999438665358 ], [ -96.705095063327448, 17.065999438665358 ], [ -96.705170523550578, 17.065968379457718 ], [ -96.705205109486158, 17.066048532241084 ], [ -96.70530991535162, 17.066007453943907 ], [ -96.70530991535162, 17.066007453943907 ], [ -96.7053245881728, 17.066156738444025 ], [ -96.7053245881728, 17.066156738444025 ], [ -96.705409480923805, 17.066269954126241 ], [ -96.705500662026793, 17.066359123951493 ] ] ] } },
{ "type": "Feature", "properties": { "fid": 23 }, "geometry": { "type": "Polygon", "coordinates": [ [ [ -96.705607564009554, 17.06599843675551 ], [ -96.705527911551783, 17.06593832215508 ], [ -96.705439874624815, 17.066024486409688 ], [ -96.705509046496005, 17.066078589525969 ], [ -96.705607564009554, 17.06599843675551 ] ] ] } },
{ "type": "Feature", "properties": { "fid": 24 }, "geometry": { "type": "Polygon", "coordinates": [ [ [ -96.705507998437355, 17.066079591435383 ], [ -96.70543673044881, 17.066022983545125 ], [ -96.705405288689192, 17.065979901422445 ], [ -96.705335592788657, 17.065993928161156 ], [ -96.705310439380952, 17.066007453943907 ], [ -96.705326684290114, 17.066155235580517 ], [ -96.705412101070465, 17.066268952217847 ], [ -96.70542475611245, 17.066283150140553 ], [ -96.705466978230845, 17.066262374177533 ], [ -96.705490770059455, 17.066251986196026 ], [ -96.705542039774656, 17.0662238381171 ], [ -96.705501186056097, 17.066134195490253 ], [ -96.705553064959503, 17.066094620075933 ], [ -96.705515858877263, 17.066074080933546 ], [ -96.705507998437355, 17.066079591435383 ] ] ] } },
{ "type": "Feature", "properties": { "fid": 25 }, "geometry": { "type": "Polygon", "coordinates": [ [ [ -96.705597083423001, 17.065856165503178 ], [ -96.705452451328668, 17.065857167413785 ], [ -96.705447735064709, 17.06572441421152 ], [ -96.7055991795403, 17.065723412300194 ], [ -96.705597083423001, 17.065856165503178 ] ] ] } },
{ "type": "Feature", "properties": { "fid": 26 }, "geometry": { "type": "Polygon", "coordinates": [ [ [ -96.70533297264204, 17.065990922431524 ], [ -96.705277425533353, 17.065866184609 ], [ -96.705153230582752, 17.065936318334739 ], [ -96.705165807286619, 17.065966375637689 ], [ -96.705173667726527, 17.06596437181765 ], [ -96.705206157544836, 17.066045526512333 ], [ -96.70533297264204, 17.065990922431524 ] ] ] } },
{ "type": "Feature", "properties": { "fid": 27 }, "geometry": { "type": "Polygon", "coordinates": [ [ [ -96.705284761943915, 17.065866184609 ], [ -96.705447735064709, 17.065853159771326 ], [ -96.705453499387318, 17.065862677922031 ], [ -96.705596559393669, 17.065859171234983 ], [ -96.705596035364323, 17.065987916701836 ], [ -96.705525815434498, 17.065932811649077 ], [ -96.705438826566123, 17.066020979725685 ], [ -96.705407908835838, 17.065977396647565 ], [ -96.705334544730007, 17.065990922431524 ], [ -96.705284761943915, 17.065866184609 ] ] ] } },
{ "type": "Feature", "properties": { "fid": 28 }, "geometry": { "type": "Polygon", "coordinates": [ [ [ -96.705849406743695, 17.06596355216108 ], [ -96.705844715397205, 17.065901894464385 ], [ -96.705773157276965, 17.065886222819046 ], [ -96.705747479839928, 17.065881213266735 ], [ -96.70568197617402, 17.065846146396812 ], [ -96.705670447528831, 17.065868188430105 ], [ -96.705596559393669, 17.065868689385379 ], [ -96.705596559393669, 17.065868689385379 ], [ -96.705598131481679, 17.065988918611733 ], [ -96.705608088038858, 17.065998937710436 ], [ -96.705517430965244, 17.066073579978827 ], [ -96.705554113018181, 17.066093117211931 ], [ -96.705669923499485, 17.065973389007688 ], [ -96.7057852099515, 17.065941828840639 ], [ -96.7057852099515, 17.065941828840639 ], [ -96.705819271857777, 17.065943832660924 ], [ -96.705819271857777, 17.065943832660924 ], [ -96.705849406743695, 17.06596355216108 ] ] ] } },
{ "type": "Feature", "properties": { "fid": 29 }, "geometry": { "type": "Polygon", "coordinates": [ [ [ -96.704996021784552, 17.066443785150646 ], [ -96.704803178992094, 17.066376657339081 ], [ -96.704853485807533, 17.066211342476315 ], [ -96.704955147497031, 17.066225369197628 ], [ -96.704983445080686, 17.066260435996302 ], [ -96.704996021784552, 17.066443785150646 ] ] ] } },
{ "type": "Feature", "properties": { "fid": 30 }, "geometry": { "type": "Polygon", "coordinates": [ [ [ -96.704878639215238, 17.065712391275319 ], [ -96.704895408153732, 17.065902754340701 ], [ -96.70495619555571, 17.066193308118791 ], [ -96.704838812986367, 17.066195311936379 ], [ -96.704788506170971, 17.066369643984231 ], [ -96.70470046924396, 17.066345598194211 ], [ -96.704616624551619, 17.066347602010161 ], [ -96.704553741032328, 17.066211342476315 ], [ -96.704553741032328, 17.066211342476315 ], [ -96.704620816786203, 17.066177277577307 ], [ -96.704610336199678, 17.066143212672081 ], [ -96.704587278909258, 17.066167258488179 ], [ -96.704570509970807, 17.06615723939851 ], [ -96.704589375026572, 17.066123174489633 ], [ -96.704591471143885, 17.066097124849232 ], [ -96.704604047847752, 17.066071075205198 ], [ -96.704637585724697, 17.066093117211921 ], [ -96.704652258545835, 17.066069071386273 ], [ -96.704645970193937, 17.066033002641984 ], [ -96.704639681842011, 17.066022983545114 ], [ -96.704631297372757, 17.065926800187778 ], [ -96.704662739132402, 17.065918784905769 ], [ -96.704681604188195, 17.065890731415998 ], [ -96.704687892540122, 17.065850654994733 ], [ -96.70464806631125, 17.065826609137847 ], [ -96.70462710513813, 17.065798555634231 ], [ -96.704654354663148, 17.065732429501871 ], [ -96.70471514206514, 17.065694356869582 ], [ -96.704840909103694, 17.065700368338351 ], [ -96.704878639215238, 17.065712391275319 ] ] ] } },
{ "type": "Feature", "properties": { "fid": 31 }, "geometry": { "type": "Polygon", "coordinates": [ [ [ -96.704625009020816, 17.065805569010532 ], [ -96.704643874076623, 17.065831618691625 ], [ -96.704679508070882, 17.065858670279681 ], [ -96.704670075543007, 17.065899748609603 ], [ -96.704669027484329, 17.065899748609603 ], [ -96.70463339349007, 17.065916781085207 ], [ -96.704622912903517, 17.065941828840636 ], [ -96.704630249314093, 17.0660289950033 ], [ -96.704643874076623, 17.066051037015004 ], [ -96.704635489607384, 17.066082096208888 ], [ -96.704601951730439, 17.066065063748368 ], [ -96.704583086674631, 17.066102134395749 ], [ -96.704579942498697, 17.066123174489633 ], [ -96.704576798322734, 17.066126180217136 ], [ -96.704563173560203, 17.066158241307505 ], [ -96.704585182791945, 17.066170264214971 ], [ -96.704608240082365, 17.066152229853483 ], [ -96.704615576492941, 17.066172268032808 ], [ -96.704558981325576, 17.066202325297766 ], [ -96.704513914803442, 17.066134195490246 ], [ -96.704505530334202, 17.066106142032861 ], [ -96.704522299272682, 17.066069071386273 ], [ -96.704545356563074, 17.066062058019874 ], [ -96.704514962862078, 17.066042019828714 ], [ -96.704509722568815, 17.066016972086739 ], [ -96.704533827917885, 17.065982907152254 ], [ -96.704520203155383, 17.065959863222457 ], [ -96.704512866744807, 17.065933813559262 ], [ -96.704516010920742, 17.065902754340705 ], [ -96.704497145864977, 17.065876704669538 ], [ -96.704487713337059, 17.065854662637253 ], [ -96.70449924198229, 17.065849653084097 ], [ -96.70449924198229, 17.065832620602361 ], [ -96.704488761395751, 17.065815588119069 ], [ -96.704495049747663, 17.065798555634231 ], [ -96.704517058979391, 17.065797553723311 ], [ -96.704528587624623, 17.065818593851532 ], [ -96.704538020152512, 17.06578452888084 ], [ -96.70454326044576, 17.065759481104305 ], [ -96.704574702205434, 17.06575647537089 ], [ -96.704625009020816, 17.065805569010532 ] ] ] } },
{ "type": "Feature", "properties": { "fid": 32 }, "geometry": { "type": "Polygon", "coordinates": [ [ [ -96.705009646547055, 17.066561008286065 ], [ -96.705009646547055, 17.066561008286065 ], [ -96.704994973725874, 17.066447792780416 ], [ -96.704792698405541, 17.066374653523436 ], [ -96.704792698405541, 17.066374653523436 ], [ -96.704696277009319, 17.066348603918133 ], [ -96.704610336199636, 17.066350607734055 ], [ -96.704548500739023, 17.066207334841458 ], [ -96.704554789090949, 17.066196313845161 ], [ -96.704501338099561, 17.066115159216046 ], [ -96.704486665278381, 17.066125178307974 ], [ -96.704488761395694, 17.066151227944452 ], [ -96.704501338099561, 17.066192306209985 ], [ -96.704508674510137, 17.066211342476311 ], [ -96.704517058979377, 17.066252420728606 ], [ -96.704521251214004, 17.066305521870625 ], [ -96.704533827917828, 17.066336581022153 ], [ -96.704405964761989, 17.066411724109326 ], [ -96.704270765195545, 17.066345598194211 ], [ -96.704143950098384, 17.066253422637089 ], [ -96.704143950098384, 17.066147220308302 ], [ -96.704070585992525, 17.066079090480663 ], [ -96.704051720936761, 17.066006952988996 ], [ -96.703999318004023, 17.065970884232708 ], [ -96.704030759763654, 17.065922792546811 ], [ -96.703988837417498, 17.066000941530096 ], [ -96.704024471411742, 17.066095121030585 ], [ -96.704062201523286, 17.066221361563066 ], [ -96.704141853981071, 17.066341590562242 ], [ -96.704234083142666, 17.066463823298662 ], [ -96.70426572141325, 17.066596638594152 ], [ -96.704450834773169, 17.066496698380607 ], [ -96.704843529250311, 17.06649287860947 ], [ -96.704843529250311, 17.06649287860947 ], [ -96.704965104054253, 17.06652994917188 ], [ -96.705009646547055, 17.066561008286065 ] ] ] } },
{ "type": "Feature", "properties": { "fid": 33 }, "geometry": { "type": "Polygon", "coordinates": [ [ [ -96.704851324186464, 17.065553901351375 ], [ -96.704862852831653, 17.06557293768282 ], [ -96.704840843599911, 17.065611010339872 ], [ -96.704773767846021, 17.065638061959898 ], [ -96.704712980444071, 17.065622031370729 ], [ -96.704687827036366, 17.065673128868927 ], [ -96.704687827036366, 17.065705190037121 ], [ -96.704644856631504, 17.06572923590965 ], [ -96.704624943517075, 17.065772318090183 ], [ -96.704595597874743, 17.065722222530486 ], [ -96.704583021170876, 17.065708195771354 ], [ -96.704593501757429, 17.065573939594948 ], [ -96.704568348349724, 17.065597985484388 ], [ -96.704552627469909, 17.065550895614649 ], [ -96.704607126519946, 17.065518834419951 ], [ -96.704660577511319, 17.065542880316496 ], [ -96.704720316854647, 17.065524845894377 ], [ -96.704776912021998, 17.065518834419951 ], [ -96.704841891658575, 17.06553185928097 ], [ -96.704851324186464, 17.065553901351375 ] ] ] } }
]
}
