{
"type": "FeatureCollection",
"name": "JebOax_Grida3x3_lineas",
"crs": { "type": "name", "properties": { "name": "urn:ogc:def:crs:OGC:1.3:CRS84" } },
"features": [
{ "type": "Feature", "properties": { "id": 1, "left": -96.723621945000005, "top": 17.067572644999998, "right": -96.721564, "bottom": 17.067572644999998 }, "geometry": { "type": "LineString", "coordinates": [ [ -96.723621945, 17.067572645 ], [ -96.721564, 17.067572645 ] ] } },
{ "type": "Feature", "properties": { "id": 2, "left": -96.723621945000005, "top": 17.067545645, "right": -96.721564, "bottom": 17.067545645 }, "geometry": { "type": "LineString", "coordinates": [ [ -96.723621945, 17.067545645 ], [ -96.721564, 17.067545645 ] ] } },
{ "type": "Feature", "properties": { "id": 3, "left": -96.723621945000005, "top": 17.067518645, "right": -96.721564, "bottom": 17.067518645 }, "geometry": { "type": "LineString", "coordinates": [ [ -96.723621945, 17.067518645 ], [ -96.721564, 17.067518645 ] ] } },
{ "type": "Feature", "properties": { "id": 4, "left": -96.723621945000005, "top": 17.067491645, "right": -96.721564, "bottom": 17.067491645 }, "geometry": { "type": "LineString", "coordinates": [ [ -96.723621945, 17.067491645 ], [ -96.721564, 17.067491645 ] ] } },
{ "type": "Feature", "properties": { "id": 5, "left": -96.723621945000005, "top": 17.067464645000001, "right": -96.721564, "bottom": 17.067464645000001 }, "geometry": { "type": "LineString", "coordinates": [ [ -96.723621945, 17.067464645 ], [ -96.721564, 17.067464645 ] ] } },
{ "type": "Feature", "properties": { "id": 6, "left": -96.723621945000005, "top": 17.067437645000002, "right": -96.721564, "bottom": 17.067437645000002 }, "geometry": { "type": "LineString", "coordinates": [ [ -96.723621945, 17.067437645 ], [ -96.721564, 17.067437645 ] ] } },
{ "type": "Feature", "properties": { "id": 7, "left": -96.723621945000005, "top": 17.067410645000002, "right": -96.721564, "bottom": 17.067410645000002 }, "geometry": { "type": "LineString", "coordinates": [ [ -96.723621945, 17.067410645 ], [ -96.721564, 17.067410645 ] ] } },
{ "type": "Feature", "properties": { "id": 8, "left": -96.723621945000005, "top": 17.067383645000003, "right": -96.721564, "bottom": 17.067383645000003 }, "geometry": { "type": "LineString", "coordinates": [ [ -96.723621945, 17.067383645 ], [ -96.721564, 17.067383645 ] ] } },
{ "type": "Feature", "properties": { "id": 9, "left": -96.723621945000005, "top": 17.067356645000004, "right": -96.721564, "bottom": 17.067356645000004 }, "geometry": { "type": "LineString", "coordinates": [ [ -96.723621945, 17.067356645 ], [ -96.721564, 17.067356645 ] ] } },
{ "type": "Feature", "properties": { "id": 10, "left": -96.723621945000005, "top": 17.067329645000004, "right": -96.721564, "bottom": 17.067329645000004 }, "geometry": { "type": "LineString", "coordinates": [ [ -96.723621945, 17.067329645 ], [ -96.721564, 17.067329645 ] ] } },
{ "type": "Feature", "properties": { "id": 11, "left": -96.723621945000005, "top": 17.067302645000005, "right": -96.721564, "bottom": 17.067302645000005 }, "geometry": { "type": "LineString", "coordinates": [ [ -96.723621945, 17.067302645 ], [ -96.721564, 17.067302645 ] ] } },
{ "type": "Feature", "properties": { "id": 12, "left": -96.723621945000005, "top": 17.067275645000006, "right": -96.721564, "bottom": 17.067275645000006 }, "geometry": { "type": "LineString", "coordinates": [ [ -96.723621945, 17.067275645 ], [ -96.721564, 17.067275645 ] ] } },
{ "type": "Feature", "properties": { "id": 13, "left": -96.723621945000005, "top": 17.067248645000006, "right": -96.721564, "bottom": 17.067248645000006 }, "geometry": { "type": "LineString", "coordinates": [ [ -96.723621945, 17.067248645 ], [ -96.721564, 17.067248645 ] ] } },
{ "type": "Feature", "properties": { "id": 14, "left": -96.723621945000005, "top": 17.067221645000007, "right": -96.721564, "bottom": 17.067221645000007 }, "geometry": { "type": "LineString", "coordinates": [ [ -96.723621945, 17.067221645 ], [ -96.721564, 17.067221645 ] ] } },
{ "type": "Feature", "properties": { "id": 15, "left": -96.723621945000005, "top": 17.067194645000008, "right": -96.721564, "bottom": 17.067194645000008 }, "geometry": { "type": "LineString", "coordinates": [ [ -96.723621945, 17.067194645 ], [ -96.721564, 17.067194645 ] ] } },
{ "type": "Feature", "properties": { "id": 16, "left": -96.723621945000005, "top": 17.067167645000008, "right": -96.721564, "bottom": 17.067167645000008 }, "geometry": { "type": "LineString", "coordinates": [ [ -96.723621945, 17.067167645 ], [ -96.721564, 17.067167645 ] ] } },
{ "type": "Feature", "properties": { "id": 17, "left": -96.723621945000005, "top": 17.067140645000009, "right": -96.721564, "bottom": 17.067140645000009 }, "geometry": { "type": "LineString", "coordinates": [ [ -96.723621945, 17.067140645 ], [ -96.721564, 17.067140645 ] ] } },
{ "type": "Feature", "properties": { "id": 18, "left": -96.723621945000005, "top": 17.06711364500001, "right": -96.721564, "bottom": 17.06711364500001 }, "geometry": { "type": "LineString", "coordinates": [ [ -96.723621945, 17.06711364500001 ], [ -96.721564, 17.06711364500001 ] ] } },
{ "type": "Feature", "properties": { "id": 19, "left": -96.723621945000005, "top": 17.06708664500001, "right": -96.721564, "bottom": 17.06708664500001 }, "geometry": { "type": "LineString", "coordinates": [ [ -96.723621945, 17.06708664500001 ], [ -96.721564, 17.06708664500001 ] ] } },
{ "type": "Feature", "properties": { "id": 20, "left": -96.723621945000005, "top": 17.067059645000011, "right": -96.721564, "bottom": 17.067059645000011 }, "geometry": { "type": "LineString", "coordinates": [ [ -96.723621945, 17.067059645000011 ], [ -96.721564, 17.067059645000011 ] ] } },
{ "type": "Feature", "properties": { "id": 21, "left": -96.723621945000005, "top": 17.067032645000012, "right": -96.721564, "bottom": 17.067032645000012 }, "geometry": { "type": "LineString", "coordinates": [ [ -96.723621945, 17.067032645000012 ], [ -96.721564, 17.067032645000012 ] ] } },
{ "type": "Feature", "properties": { "id": 22, "left": -96.723621945000005, "top": 17.067005645000012, "right": -96.721564, "bottom": 17.067005645000012 }, "geometry": { "type": "LineString", "coordinates": [ [ -96.723621945, 17.067005645000012 ], [ -96.721564, 17.067005645000012 ] ] } },
{ "type": "Feature", "properties": { "id": 23, "left": -96.723621945000005, "top": 17.066978645000013, "right": -96.721564, "bottom": 17.066978645000013 }, "geometry": { "type": "LineString", "coordinates": [ [ -96.723621945, 17.066978645000013 ], [ -96.721564, 17.066978645000013 ] ] } },
{ "type": "Feature", "properties": { "id": 24, "left": -96.723621945000005, "top": 17.066951645000014, "right": -96.721564, "bottom": 17.066951645000014 }, "geometry": { "type": "LineString", "coordinates": [ [ -96.723621945, 17.066951645000014 ], [ -96.721564, 17.066951645000014 ] ] } },
{ "type": "Feature", "properties": { "id": 25, "left": -96.723621945000005, "top": 17.066924645000014, "right": -96.721564, "bottom": 17.066924645000014 }, "geometry": { "type": "LineString", "coordinates": [ [ -96.723621945, 17.066924645000014 ], [ -96.721564, 17.066924645000014 ] ] } },
{ "type": "Feature", "properties": { "id": 26, "left": -96.723621945000005, "top": 17.066897645000015, "right": -96.721564, "bottom": 17.066897645000015 }, "geometry": { "type": "LineString", "coordinates": [ [ -96.723621945, 17.066897645000015 ], [ -96.721564, 17.066897645000015 ] ] } },
{ "type": "Feature", "properties": { "id": 27, "left": -96.723621945000005, "top": 17.066870645000016, "right": -96.721564, "bottom": 17.066870645000016 }, "geometry": { "type": "LineString", "coordinates": [ [ -96.723621945, 17.066870645000016 ], [ -96.721564, 17.066870645000016 ] ] } },
{ "type": "Feature", "properties": { "id": 28, "left": -96.723621945000005, "top": 17.066843645000016, "right": -96.721564, "bottom": 17.066843645000016 }, "geometry": { "type": "LineString", "coordinates": [ [ -96.723621945, 17.066843645000016 ], [ -96.721564, 17.066843645000016 ] ] } },
{ "type": "Feature", "properties": { "id": 29, "left": -96.723621945000005, "top": 17.066816645000017, "right": -96.721564, "bottom": 17.066816645000017 }, "geometry": { "type": "LineString", "coordinates": [ [ -96.723621945, 17.066816645000017 ], [ -96.721564, 17.066816645000017 ] ] } },
{ "type": "Feature", "properties": { "id": 30, "left": -96.723621945000005, "top": 17.066789645000018, "right": -96.721564, "bottom": 17.066789645000018 }, "geometry": { "type": "LineString", "coordinates": [ [ -96.723621945, 17.066789645000018 ], [ -96.721564, 17.066789645000018 ] ] } },
{ "type": "Feature", "properties": { "id": 31, "left": -96.723621945000005, "top": 17.066762645000018, "right": -96.721564, "bottom": 17.066762645000018 }, "geometry": { "type": "LineString", "coordinates": [ [ -96.723621945, 17.066762645000018 ], [ -96.721564, 17.066762645000018 ] ] } },
{ "type": "Feature", "properties": { "id": 32, "left": -96.723621945000005, "top": 17.066735645000019, "right": -96.721564, "bottom": 17.066735645000019 }, "geometry": { "type": "LineString", "coordinates": [ [ -96.723621945, 17.066735645000019 ], [ -96.721564, 17.066735645000019 ] ] } },
{ "type": "Feature", "properties": { "id": 33, "left": -96.723621945000005, "top": 17.06670864500002, "right": -96.721564, "bottom": 17.06670864500002 }, "geometry": { "type": "LineString", "coordinates": [ [ -96.723621945, 17.06670864500002 ], [ -96.721564, 17.06670864500002 ] ] } },
{ "type": "Feature", "properties": { "id": 34, "left": -96.723621945000005, "top": 17.06668164500002, "right": -96.721564, "bottom": 17.06668164500002 }, "geometry": { "type": "LineString", "coordinates": [ [ -96.723621945, 17.06668164500002 ], [ -96.721564, 17.06668164500002 ] ] } },
{ "type": "Feature", "properties": { "id": 35, "left": -96.723621945000005, "top": 17.066654645000021, "right": -96.721564, "bottom": 17.066654645000021 }, "geometry": { "type": "LineString", "coordinates": [ [ -96.723621945, 17.066654645000021 ], [ -96.721564, 17.066654645000021 ] ] } },
{ "type": "Feature", "properties": { "id": 36, "left": -96.723621945000005, "top": 17.066627645000022, "right": -96.721564, "bottom": 17.066627645000022 }, "geometry": { "type": "LineString", "coordinates": [ [ -96.723621945, 17.066627645000022 ], [ -96.721564, 17.066627645000022 ] ] } },
{ "type": "Feature", "properties": { "id": 37, "left": -96.723621945000005, "top": 17.066600645000022, "right": -96.721564, "bottom": 17.066600645000022 }, "geometry": { "type": "LineString", "coordinates": [ [ -96.723621945, 17.066600645000022 ], [ -96.721564, 17.066600645000022 ] ] } },
{ "type": "Feature", "properties": { "id": 38, "left": -96.723621945000005, "top": 17.066573645000023, "right": -96.721564, "bottom": 17.066573645000023 }, "geometry": { "type": "LineString", "coordinates": [ [ -96.723621945, 17.066573645000023 ], [ -96.721564, 17.066573645000023 ] ] } },
{ "type": "Feature", "properties": { "id": 39, "left": -96.723621945000005, "top": 17.066546645000024, "right": -96.721564, "bottom": 17.066546645000024 }, "geometry": { "type": "LineString", "coordinates": [ [ -96.723621945, 17.066546645000024 ], [ -96.721564, 17.066546645000024 ] ] } },
{ "type": "Feature", "properties": { "id": 40, "left": -96.723621945000005, "top": 17.066519645000024, "right": -96.721564, "bottom": 17.066519645000024 }, "geometry": { "type": "LineString", "coordinates": [ [ -96.723621945, 17.066519645000024 ], [ -96.721564, 17.066519645000024 ] ] } },
{ "type": "Feature", "properties": { "id": 41, "left": -96.723621945000005, "top": 17.066492645000025, "right": -96.721564, "bottom": 17.066492645000025 }, "geometry": { "type": "LineString", "coordinates": [ [ -96.723621945, 17.066492645000025 ], [ -96.721564, 17.066492645000025 ] ] } },
{ "type": "Feature", "properties": { "id": 42, "left": -96.723621945000005, "top": 17.066465645000026, "right": -96.721564, "bottom": 17.066465645000026 }, "geometry": { "type": "LineString", "coordinates": [ [ -96.723621945, 17.066465645000026 ], [ -96.721564, 17.066465645000026 ] ] } },
{ "type": "Feature", "properties": { "id": 43, "left": -96.723621945000005, "top": 17.066438645000026, "right": -96.721564, "bottom": 17.066438645000026 }, "geometry": { "type": "LineString", "coordinates": [ [ -96.723621945, 17.066438645000026 ], [ -96.721564, 17.066438645000026 ] ] } },
{ "type": "Feature", "properties": { "id": 44, "left": -96.723621945000005, "top": 17.066411645000027, "right": -96.721564, "bottom": 17.066411645000027 }, "geometry": { "type": "LineString", "coordinates": [ [ -96.723621945, 17.066411645000027 ], [ -96.721564, 17.066411645000027 ] ] } },
{ "type": "Feature", "properties": { "id": 45, "left": -96.723621945000005, "top": 17.066384645000028, "right": -96.721564, "bottom": 17.066384645000028 }, "geometry": { "type": "LineString", "coordinates": [ [ -96.723621945, 17.066384645000028 ], [ -96.721564, 17.066384645000028 ] ] } },
{ "type": "Feature", "properties": { "id": 46, "left": -96.723621945000005, "top": 17.066357645000028, "right": -96.721564, "bottom": 17.066357645000028 }, "geometry": { "type": "LineString", "coordinates": [ [ -96.723621945, 17.066357645000028 ], [ -96.721564, 17.066357645000028 ] ] } },
{ "type": "Feature", "properties": { "id": 47, "left": -96.723621945000005, "top": 17.066330645000029, "right": -96.721564, "bottom": 17.066330645000029 }, "geometry": { "type": "LineString", "coordinates": [ [ -96.723621945, 17.066330645000029 ], [ -96.721564, 17.066330645000029 ] ] } },
{ "type": "Feature", "properties": { "id": 48, "left": -96.723621945000005, "top": 17.06630364500003, "right": -96.721564, "bottom": 17.06630364500003 }, "geometry": { "type": "LineString", "coordinates": [ [ -96.723621945, 17.06630364500003 ], [ -96.721564, 17.06630364500003 ] ] } },
{ "type": "Feature", "properties": { "id": 49, "left": -96.723621945000005, "top": 17.06627664500003, "right": -96.721564, "bottom": 17.06627664500003 }, "geometry": { "type": "LineString", "coordinates": [ [ -96.723621945, 17.06627664500003 ], [ -96.721564, 17.06627664500003 ] ] } },
{ "type": "Feature", "properties": { "id": 50, "left": -96.723621945000005, "top": 17.066249645000031, "right": -96.721564, "bottom": 17.066249645000031 }, "geometry": { "type": "LineString", "coordinates": [ [ -96.723621945, 17.066249645000031 ], [ -96.721564, 17.066249645000031 ] ] } },
{ "type": "Feature", "properties": { "id": 51, "left": -96.723621945000005, "top": 17.066222645000032, "right": -96.721564, "bottom": 17.066222645000032 }, "geometry": { "type": "LineString", "coordinates": [ [ -96.723621945, 17.066222645000032 ], [ -96.721564, 17.066222645000032 ] ] } },
{ "type": "Feature", "properties": { "id": 52, "left": -96.723621945000005, "top": 17.066195645000032, "right": -96.721564, "bottom": 17.066195645000032 }, "geometry": { "type": "LineString", "coordinates": [ [ -96.723621945, 17.066195645000032 ], [ -96.721564, 17.066195645000032 ] ] } },
{ "type": "Feature", "properties": { "id": 53, "left": -96.723621945000005, "top": 17.066168645000033, "right": -96.721564, "bottom": 17.066168645000033 }, "geometry": { "type": "LineString", "coordinates": [ [ -96.723621945, 17.066168645000033 ], [ -96.721564, 17.066168645000033 ] ] } },
{ "type": "Feature", "properties": { "id": 54, "left": -96.723621945000005, "top": 17.066141645000034, "right": -96.721564, "bottom": 17.066141645000034 }, "geometry": { "type": "LineString", "coordinates": [ [ -96.723621945, 17.066141645000034 ], [ -96.721564, 17.066141645000034 ] ] } },
{ "type": "Feature", "properties": { "id": 55, "left": -96.723621945000005, "top": 17.066114645000034, "right": -96.721564, "bottom": 17.066114645000034 }, "geometry": { "type": "LineString", "coordinates": [ [ -96.723621945, 17.066114645000034 ], [ -96.721564, 17.066114645000034 ] ] } },
{ "type": "Feature", "properties": { "id": 56, "left": -96.723621945000005, "top": 17.066087645000035, "right": -96.721564, "bottom": 17.066087645000035 }, "geometry": { "type": "LineString", "coordinates": [ [ -96.723621945, 17.066087645000035 ], [ -96.721564, 17.066087645000035 ] ] } },
{ "type": "Feature", "properties": { "id": 57, "left": -96.723621945000005, "top": 17.066060645000036, "right": -96.721564, "bottom": 17.066060645000036 }, "geometry": { "type": "LineString", "coordinates": [ [ -96.723621945, 17.066060645000036 ], [ -96.721564, 17.066060645000036 ] ] } },
{ "type": "Feature", "properties": { "id": 58, "left": -96.723621945000005, "top": 17.066033645000037, "right": -96.721564, "bottom": 17.066033645000037 }, "geometry": { "type": "LineString", "coordinates": [ [ -96.723621945, 17.066033645000037 ], [ -96.721564, 17.066033645000037 ] ] } },
{ "type": "Feature", "properties": { "id": 59, "left": -96.723621945000005, "top": 17.066006645000037, "right": -96.721564, "bottom": 17.066006645000037 }, "geometry": { "type": "LineString", "coordinates": [ [ -96.723621945, 17.066006645000037 ], [ -96.721564, 17.066006645000037 ] ] } },
{ "type": "Feature", "properties": { "id": 60, "left": -96.723621945000005, "top": 17.065979645000038, "right": -96.721564, "bottom": 17.065979645000038 }, "geometry": { "type": "LineString", "coordinates": [ [ -96.723621945, 17.065979645000038 ], [ -96.721564, 17.065979645000038 ] ] } },
{ "type": "Feature", "properties": { "id": 61, "left": -96.723621945000005, "top": 17.065952645000039, "right": -96.721564, "bottom": 17.065952645000039 }, "geometry": { "type": "LineString", "coordinates": [ [ -96.723621945, 17.065952645000039 ], [ -96.721564, 17.065952645000039 ] ] } },
{ "type": "Feature", "properties": { "id": 62, "left": -96.723621945000005, "top": 17.065925645000039, "right": -96.721564, "bottom": 17.065925645000039 }, "geometry": { "type": "LineString", "coordinates": [ [ -96.723621945, 17.065925645000039 ], [ -96.721564, 17.065925645000039 ] ] } },
{ "type": "Feature", "properties": { "id": 63, "left": -96.723621945000005, "top": 17.06589864500004, "right": -96.721564, "bottom": 17.06589864500004 }, "geometry": { "type": "LineString", "coordinates": [ [ -96.723621945, 17.06589864500004 ], [ -96.721564, 17.06589864500004 ] ] } },
{ "type": "Feature", "properties": { "id": 64, "left": -96.723621945000005, "top": 17.065871645000041, "right": -96.721564, "bottom": 17.065871645000041 }, "geometry": { "type": "LineString", "coordinates": [ [ -96.723621945, 17.065871645000041 ], [ -96.721564, 17.065871645000041 ] ] } },
{ "type": "Feature", "properties": { "id": 65, "left": -96.723621945000005, "top": 17.065844645000041, "right": -96.721564, "bottom": 17.065844645000041 }, "geometry": { "type": "LineString", "coordinates": [ [ -96.723621945, 17.065844645000041 ], [ -96.721564, 17.065844645000041 ] ] } },
{ "type": "Feature", "properties": { "id": 66, "left": -96.723621945000005, "top": 17.065817645000042, "right": -96.721564, "bottom": 17.065817645000042 }, "geometry": { "type": "LineString", "coordinates": [ [ -96.723621945, 17.065817645000042 ], [ -96.721564, 17.065817645000042 ] ] } },
{ "type": "Feature", "properties": { "id": 67, "left": -96.723621945000005, "top": 17.065790645000043, "right": -96.721564, "bottom": 17.065790645000043 }, "geometry": { "type": "LineString", "coordinates": [ [ -96.723621945, 17.065790645000043 ], [ -96.721564, 17.065790645000043 ] ] } },
{ "type": "Feature", "properties": { "id": 68, "left": -96.723621945000005, "top": 17.065763645000043, "right": -96.721564, "bottom": 17.065763645000043 }, "geometry": { "type": "LineString", "coordinates": [ [ -96.723621945, 17.065763645000043 ], [ -96.721564, 17.065763645000043 ] ] } },
{ "type": "Feature", "properties": { "id": 69, "left": -96.723621945000005, "top": 17.065736645000044, "right": -96.721564, "bottom": 17.065736645000044 }, "geometry": { "type": "LineString", "coordinates": [ [ -96.723621945, 17.065736645000044 ], [ -96.721564, 17.065736645000044 ] ] } },
{ "type": "Feature", "properties": { "id": 70, "left": -96.723621945000005, "top": 17.065709645000045, "right": -96.721564, "bottom": 17.065709645000045 }, "geometry": { "type": "LineString", "coordinates": [ [ -96.723621945, 17.065709645000045 ], [ -96.721564, 17.065709645000045 ] ] } },
{ "type": "Feature", "properties": { "id": 71, "left": -96.723621945000005, "top": 17.065682645000045, "right": -96.721564, "bottom": 17.065682645000045 }, "geometry": { "type": "LineString", "coordinates": [ [ -96.723621945, 17.065682645000045 ], [ -96.721564, 17.065682645000045 ] ] } },
{ "type": "Feature", "properties": { "id": 72, "left": -96.723621945000005, "top": 17.065655645000046, "right": -96.721564, "bottom": 17.065655645000046 }, "geometry": { "type": "LineString", "coordinates": [ [ -96.723621945, 17.065655645000046 ], [ -96.721564, 17.065655645000046 ] ] } },
{ "type": "Feature", "properties": { "id": 73, "left": -96.723621945000005, "top": 17.065628645000047, "right": -96.721564, "bottom": 17.065628645000047 }, "geometry": { "type": "LineString", "coordinates": [ [ -96.723621945, 17.065628645000047 ], [ -96.721564, 17.065628645000047 ] ] } },
{ "type": "Feature", "properties": { "id": 74, "left": -96.723621945000005, "top": 17.065601645000047, "right": -96.721564, "bottom": 17.065601645000047 }, "geometry": { "type": "LineString", "coordinates": [ [ -96.723621945, 17.065601645000047 ], [ -96.721564, 17.065601645000047 ] ] } },
{ "type": "Feature", "properties": { "id": 75, "left": -96.723621945000005, "top": 17.065574645000048, "right": -96.721564, "bottom": 17.065574645000048 }, "geometry": { "type": "LineString", "coordinates": [ [ -96.723621945, 17.065574645000048 ], [ -96.721564, 17.065574645000048 ] ] } },
{ "type": "Feature", "properties": { "id": 76, "left": -96.723621945000005, "top": 17.065547645000049, "right": -96.721564, "bottom": 17.065547645000049 }, "geometry": { "type": "LineString", "coordinates": [ [ -96.723621945, 17.065547645000049 ], [ -96.721564, 17.065547645000049 ] ] } },
{ "type": "Feature", "properties": { "id": 77, "left": -96.723621945000005, "top": 17.065520645000049, "right": -96.721564, "bottom": 17.065520645000049 }, "geometry": { "type": "LineString", "coordinates": [ [ -96.723621945, 17.065520645000049 ], [ -96.721564, 17.065520645000049 ] ] } },
{ "type": "Feature", "properties": { "id": 78, "left": -96.723621945000005, "top": 17.067572644999998, "right": -96.723621945000005, "bottom": 17.065499993 }, "geometry": { "type": "LineString", "coordinates": [ [ -96.723621945, 17.067572645 ], [ -96.723621945, 17.065499993 ] ] } },
{ "type": "Feature", "properties": { "id": 79, "left": -96.723594945000002, "top": 17.067572644999998, "right": -96.723594945000002, "bottom": 17.065499993 }, "geometry": { "type": "LineString", "coordinates": [ [ -96.723594945, 17.067572645 ], [ -96.723594945, 17.065499993 ] ] } },
{ "type": "Feature", "properties": { "id": 80, "left": -96.723567945, "top": 17.067572644999998, "right": -96.723567945, "bottom": 17.065499993 }, "geometry": { "type": "LineString", "coordinates": [ [ -96.723567945, 17.067572645 ], [ -96.723567945, 17.065499993 ] ] } },
{ "type": "Feature", "properties": { "id": 81, "left": -96.723540944999996, "top": 17.067572644999998, "right": -96.723540944999996, "bottom": 17.065499993 }, "geometry": { "type": "LineString", "coordinates": [ [ -96.723540945, 17.067572645 ], [ -96.723540945, 17.065499993 ] ] } },
{ "type": "Feature", "properties": { "id": 82, "left": -96.723513944999993, "top": 17.067572644999998, "right": -96.723513944999993, "bottom": 17.065499993 }, "geometry": { "type": "LineString", "coordinates": [ [ -96.723513945, 17.067572645 ], [ -96.723513945, 17.065499993 ] ] } },
{ "type": "Feature", "properties": { "id": 83, "left": -96.723486944999991, "top": 17.067572644999998, "right": -96.723486944999991, "bottom": 17.065499993 }, "geometry": { "type": "LineString", "coordinates": [ [ -96.723486945, 17.067572645 ], [ -96.723486945, 17.065499993 ] ] } },
{ "type": "Feature", "properties": { "id": 84, "left": -96.723459944999988, "top": 17.067572644999998, "right": -96.723459944999988, "bottom": 17.065499993 }, "geometry": { "type": "LineString", "coordinates": [ [ -96.723459944999988, 17.067572645 ], [ -96.723459944999988, 17.065499993 ] ] } },
{ "type": "Feature", "properties": { "id": 85, "left": -96.723432944999985, "top": 17.067572644999998, "right": -96.723432944999985, "bottom": 17.065499993 }, "geometry": { "type": "LineString", "coordinates": [ [ -96.723432944999985, 17.067572645 ], [ -96.723432944999985, 17.065499993 ] ] } },
{ "type": "Feature", "properties": { "id": 86, "left": -96.723405944999982, "top": 17.067572644999998, "right": -96.723405944999982, "bottom": 17.065499993 }, "geometry": { "type": "LineString", "coordinates": [ [ -96.723405944999982, 17.067572645 ], [ -96.723405944999982, 17.065499993 ] ] } },
{ "type": "Feature", "properties": { "id": 87, "left": -96.723378944999979, "top": 17.067572644999998, "right": -96.723378944999979, "bottom": 17.065499993 }, "geometry": { "type": "LineString", "coordinates": [ [ -96.723378944999979, 17.067572645 ], [ -96.723378944999979, 17.065499993 ] ] } },
{ "type": "Feature", "properties": { "id": 88, "left": -96.723351944999976, "top": 17.067572644999998, "right": -96.723351944999976, "bottom": 17.065499993 }, "geometry": { "type": "LineString", "coordinates": [ [ -96.723351944999976, 17.067572645 ], [ -96.723351944999976, 17.065499993 ] ] } },
{ "type": "Feature", "properties": { "id": 89, "left": -96.723324944999973, "top": 17.067572644999998, "right": -96.723324944999973, "bottom": 17.065499993 }, "geometry": { "type": "LineString", "coordinates": [ [ -96.723324944999973, 17.067572645 ], [ -96.723324944999973, 17.065499993 ] ] } },
{ "type": "Feature", "properties": { "id": 90, "left": -96.72329794499997, "top": 17.067572644999998, "right": -96.72329794499997, "bottom": 17.065499993 }, "geometry": { "type": "LineString", "coordinates": [ [ -96.72329794499997, 17.067572645 ], [ -96.72329794499997, 17.065499993 ] ] } },
{ "type": "Feature", "properties": { "id": 91, "left": -96.723270944999967, "top": 17.067572644999998, "right": -96.723270944999967, "bottom": 17.065499993 }, "geometry": { "type": "LineString", "coordinates": [ [ -96.723270944999967, 17.067572645 ], [ -96.723270944999967, 17.065499993 ] ] } },
{ "type": "Feature", "properties": { "id": 92, "left": -96.723243944999965, "top": 17.067572644999998, "right": -96.723243944999965, "bottom": 17.065499993 }, "geometry": { "type": "LineString", "coordinates": [ [ -96.723243944999965, 17.067572645 ], [ -96.723243944999965, 17.065499993 ] ] } },
{ "type": "Feature", "properties": { "id": 93, "left": -96.723216944999962, "top": 17.067572644999998, "right": -96.723216944999962, "bottom": 17.065499993 }, "geometry": { "type": "LineString", "coordinates": [ [ -96.723216944999962, 17.067572645 ], [ -96.723216944999962, 17.065499993 ] ] } },
{ "type": "Feature", "properties": { "id": 94, "left": -96.723189944999959, "top": 17.067572644999998, "right": -96.723189944999959, "bottom": 17.065499993 }, "geometry": { "type": "LineString", "coordinates": [ [ -96.723189944999959, 17.067572645 ], [ -96.723189944999959, 17.065499993 ] ] } },
{ "type": "Feature", "properties": { "id": 95, "left": -96.723162944999956, "top": 17.067572644999998, "right": -96.723162944999956, "bottom": 17.065499993 }, "geometry": { "type": "LineString", "coordinates": [ [ -96.723162944999956, 17.067572645 ], [ -96.723162944999956, 17.065499993 ] ] } },
{ "type": "Feature", "properties": { "id": 96, "left": -96.723135944999953, "top": 17.067572644999998, "right": -96.723135944999953, "bottom": 17.065499993 }, "geometry": { "type": "LineString", "coordinates": [ [ -96.723135944999953, 17.067572645 ], [ -96.723135944999953, 17.065499993 ] ] } },
{ "type": "Feature", "properties": { "id": 97, "left": -96.72310894499995, "top": 17.067572644999998, "right": -96.72310894499995, "bottom": 17.065499993 }, "geometry": { "type": "LineString", "coordinates": [ [ -96.72310894499995, 17.067572645 ], [ -96.72310894499995, 17.065499993 ] ] } },
{ "type": "Feature", "properties": { "id": 98, "left": -96.723081944999947, "top": 17.067572644999998, "right": -96.723081944999947, "bottom": 17.065499993 }, "geometry": { "type": "LineString", "coordinates": [ [ -96.723081944999947, 17.067572645 ], [ -96.723081944999947, 17.065499993 ] ] } },
{ "type": "Feature", "properties": { "id": 99, "left": -96.723054944999944, "top": 17.067572644999998, "right": -96.723054944999944, "bottom": 17.065499993 }, "geometry": { "type": "LineString", "coordinates": [ [ -96.723054944999944, 17.067572645 ], [ -96.723054944999944, 17.065499993 ] ] } },
{ "type": "Feature", "properties": { "id": 100, "left": -96.723027944999941, "top": 17.067572644999998, "right": -96.723027944999941, "bottom": 17.065499993 }, "geometry": { "type": "LineString", "coordinates": [ [ -96.723027944999941, 17.067572645 ], [ -96.723027944999941, 17.065499993 ] ] } },
{ "type": "Feature", "properties": { "id": 101, "left": -96.723000944999939, "top": 17.067572644999998, "right": -96.723000944999939, "bottom": 17.065499993 }, "geometry": { "type": "LineString", "coordinates": [ [ -96.723000944999939, 17.067572645 ], [ -96.723000944999939, 17.065499993 ] ] } },
{ "type": "Feature", "properties": { "id": 102, "left": -96.722973944999936, "top": 17.067572644999998, "right": -96.722973944999936, "bottom": 17.065499993 }, "geometry": { "type": "LineString", "coordinates": [ [ -96.722973944999936, 17.067572645 ], [ -96.722973944999936, 17.065499993 ] ] } },
{ "type": "Feature", "properties": { "id": 103, "left": -96.722946944999933, "top": 17.067572644999998, "right": -96.722946944999933, "bottom": 17.065499993 }, "geometry": { "type": "LineString", "coordinates": [ [ -96.722946944999933, 17.067572645 ], [ -96.722946944999933, 17.065499993 ] ] } },
{ "type": "Feature", "properties": { "id": 104, "left": -96.72291994499993, "top": 17.067572644999998, "right": -96.72291994499993, "bottom": 17.065499993 }, "geometry": { "type": "LineString", "coordinates": [ [ -96.72291994499993, 17.067572645 ], [ -96.72291994499993, 17.065499993 ] ] } },
{ "type": "Feature", "properties": { "id": 105, "left": -96.722892944999927, "top": 17.067572644999998, "right": -96.722892944999927, "bottom": 17.065499993 }, "geometry": { "type": "LineString", "coordinates": [ [ -96.722892944999927, 17.067572645 ], [ -96.722892944999927, 17.065499993 ] ] } },
{ "type": "Feature", "properties": { "id": 106, "left": -96.722865944999924, "top": 17.067572644999998, "right": -96.722865944999924, "bottom": 17.065499993 }, "geometry": { "type": "LineString", "coordinates": [ [ -96.722865944999924, 17.067572645 ], [ -96.722865944999924, 17.065499993 ] ] } },
{ "type": "Feature", "properties": { "id": 107, "left": -96.722838944999921, "top": 17.067572644999998, "right": -96.722838944999921, "bottom": 17.065499993 }, "geometry": { "type": "LineString", "coordinates": [ [ -96.722838944999921, 17.067572645 ], [ -96.722838944999921, 17.065499993 ] ] } },
{ "type": "Feature", "properties": { "id": 108, "left": -96.722811944999918, "top": 17.067572644999998, "right": -96.722811944999918, "bottom": 17.065499993 }, "geometry": { "type": "LineString", "coordinates": [ [ -96.722811944999918, 17.067572645 ], [ -96.722811944999918, 17.065499993 ] ] } },
{ "type": "Feature", "properties": { "id": 109, "left": -96.722784944999916, "top": 17.067572644999998, "right": -96.722784944999916, "bottom": 17.065499993 }, "geometry": { "type": "LineString", "coordinates": [ [ -96.722784944999916, 17.067572645 ], [ -96.722784944999916, 17.065499993 ] ] } },
{ "type": "Feature", "properties": { "id": 110, "left": -96.722757944999913, "top": 17.067572644999998, "right": -96.722757944999913, "bottom": 17.065499993 }, "geometry": { "type": "LineString", "coordinates": [ [ -96.722757944999913, 17.067572645 ], [ -96.722757944999913, 17.065499993 ] ] } },
{ "type": "Feature", "properties": { "id": 111, "left": -96.72273094499991, "top": 17.067572644999998, "right": -96.72273094499991, "bottom": 17.065499993 }, "geometry": { "type": "LineString", "coordinates": [ [ -96.72273094499991, 17.067572645 ], [ -96.72273094499991, 17.065499993 ] ] } },
{ "type": "Feature", "properties": { "id": 112, "left": -96.722703944999907, "top": 17.067572644999998, "right": -96.722703944999907, "bottom": 17.065499993 }, "geometry": { "type": "LineString", "coordinates": [ [ -96.722703944999907, 17.067572645 ], [ -96.722703944999907, 17.065499993 ] ] } },
{ "type": "Feature", "properties": { "id": 113, "left": -96.722676944999904, "top": 17.067572644999998, "right": -96.722676944999904, "bottom": 17.065499993 }, "geometry": { "type": "LineString", "coordinates": [ [ -96.722676944999904, 17.067572645 ], [ -96.722676944999904, 17.065499993 ] ] } },
{ "type": "Feature", "properties": { "id": 114, "left": -96.722649944999901, "top": 17.067572644999998, "right": -96.722649944999901, "bottom": 17.065499993 }, "geometry": { "type": "LineString", "coordinates": [ [ -96.722649944999901, 17.067572645 ], [ -96.722649944999901, 17.065499993 ] ] } },
{ "type": "Feature", "properties": { "id": 115, "left": -96.722622944999898, "top": 17.067572644999998, "right": -96.722622944999898, "bottom": 17.065499993 }, "geometry": { "type": "LineString", "coordinates": [ [ -96.722622944999898, 17.067572645 ], [ -96.722622944999898, 17.065499993 ] ] } },
{ "type": "Feature", "properties": { "id": 116, "left": -96.722595944999895, "top": 17.067572644999998, "right": -96.722595944999895, "bottom": 17.065499993 }, "geometry": { "type": "LineString", "coordinates": [ [ -96.722595944999895, 17.067572645 ], [ -96.722595944999895, 17.065499993 ] ] } },
{ "type": "Feature", "properties": { "id": 117, "left": -96.722568944999892, "top": 17.067572644999998, "right": -96.722568944999892, "bottom": 17.065499993 }, "geometry": { "type": "LineString", "coordinates": [ [ -96.722568944999892, 17.067572645 ], [ -96.722568944999892, 17.065499993 ] ] } },
{ "type": "Feature", "properties": { "id": 118, "left": -96.72254194499989, "top": 17.067572644999998, "right": -96.72254194499989, "bottom": 17.065499993 }, "geometry": { "type": "LineString", "coordinates": [ [ -96.72254194499989, 17.067572645 ], [ -96.72254194499989, 17.065499993 ] ] } },
{ "type": "Feature", "properties": { "id": 119, "left": -96.722514944999887, "top": 17.067572644999998, "right": -96.722514944999887, "bottom": 17.065499993 }, "geometry": { "type": "LineString", "coordinates": [ [ -96.722514944999887, 17.067572645 ], [ -96.722514944999887, 17.065499993 ] ] } },
{ "type": "Feature", "properties": { "id": 120, "left": -96.722487944999884, "top": 17.067572644999998, "right": -96.722487944999884, "bottom": 17.065499993 }, "geometry": { "type": "LineString", "coordinates": [ [ -96.722487944999884, 17.067572645 ], [ -96.722487944999884, 17.065499993 ] ] } },
{ "type": "Feature", "properties": { "id": 121, "left": -96.722460944999881, "top": 17.067572644999998, "right": -96.722460944999881, "bottom": 17.065499993 }, "geometry": { "type": "LineString", "coordinates": [ [ -96.722460944999881, 17.067572645 ], [ -96.722460944999881, 17.065499993 ] ] } },
{ "type": "Feature", "properties": { "id": 122, "left": -96.722433944999878, "top": 17.067572644999998, "right": -96.722433944999878, "bottom": 17.065499993 }, "geometry": { "type": "LineString", "coordinates": [ [ -96.722433944999878, 17.067572645 ], [ -96.722433944999878, 17.065499993 ] ] } },
{ "type": "Feature", "properties": { "id": 123, "left": -96.722406944999875, "top": 17.067572644999998, "right": -96.722406944999875, "bottom": 17.065499993 }, "geometry": { "type": "LineString", "coordinates": [ [ -96.722406944999875, 17.067572645 ], [ -96.722406944999875, 17.065499993 ] ] } },
{ "type": "Feature", "properties": { "id": 124, "left": -96.722379944999872, "top": 17.067572644999998, "right": -96.722379944999872, "bottom": 17.065499993 }, "geometry": { "type": "LineString", "coordinates": [ [ -96.722379944999872, 17.067572645 ], [ -96.722379944999872, 17.065499993 ] ] } },
{ "type": "Feature", "properties": { "id": 125, "left": -96.722352944999869, "top": 17.067572644999998, "right": -96.722352944999869, "bottom": 17.065499993 }, "geometry": { "type": "LineString", "coordinates": [ [ -96.722352944999869, 17.067572645 ], [ -96.722352944999869, 17.065499993 ] ] } },
{ "type": "Feature", "properties": { "id": 126, "left": -96.722325944999866, "top": 17.067572644999998, "right": -96.722325944999866, "bottom": 17.065499993 }, "geometry": { "type": "LineString", "coordinates": [ [ -96.722325944999866, 17.067572645 ], [ -96.722325944999866, 17.065499993 ] ] } },
{ "type": "Feature", "properties": { "id": 127, "left": -96.722298944999864, "top": 17.067572644999998, "right": -96.722298944999864, "bottom": 17.065499993 }, "geometry": { "type": "LineString", "coordinates": [ [ -96.722298944999864, 17.067572645 ], [ -96.722298944999864, 17.065499993 ] ] } },
{ "type": "Feature", "properties": { "id": 128, "left": -96.722271944999861, "top": 17.067572644999998, "right": -96.722271944999861, "bottom": 17.065499993 }, "geometry": { "type": "LineString", "coordinates": [ [ -96.722271944999861, 17.067572645 ], [ -96.722271944999861, 17.065499993 ] ] } },
{ "type": "Feature", "properties": { "id": 129, "left": -96.722244944999858, "top": 17.067572644999998, "right": -96.722244944999858, "bottom": 17.065499993 }, "geometry": { "type": "LineString", "coordinates": [ [ -96.722244944999858, 17.067572645 ], [ -96.722244944999858, 17.065499993 ] ] } },
{ "type": "Feature", "properties": { "id": 130, "left": -96.722217944999855, "top": 17.067572644999998, "right": -96.722217944999855, "bottom": 17.065499993 }, "geometry": { "type": "LineString", "coordinates": [ [ -96.722217944999855, 17.067572645 ], [ -96.722217944999855, 17.065499993 ] ] } },
{ "type": "Feature", "properties": { "id": 131, "left": -96.722190944999852, "top": 17.067572644999998, "right": -96.722190944999852, "bottom": 17.065499993 }, "geometry": { "type": "LineString", "coordinates": [ [ -96.722190944999852, 17.067572645 ], [ -96.722190944999852, 17.065499993 ] ] } },
{ "type": "Feature", "properties": { "id": 132, "left": -96.722163944999849, "top": 17.067572644999998, "right": -96.722163944999849, "bottom": 17.065499993 }, "geometry": { "type": "LineString", "coordinates": [ [ -96.722163944999849, 17.067572645 ], [ -96.722163944999849, 17.065499993 ] ] } },
{ "type": "Feature", "properties": { "id": 133, "left": -96.722136944999846, "top": 17.067572644999998, "right": -96.722136944999846, "bottom": 17.065499993 }, "geometry": { "type": "LineString", "coordinates": [ [ -96.722136944999846, 17.067572645 ], [ -96.722136944999846, 17.065499993 ] ] } },
{ "type": "Feature", "properties": { "id": 134, "left": -96.722109944999843, "top": 17.067572644999998, "right": -96.722109944999843, "bottom": 17.065499993 }, "geometry": { "type": "LineString", "coordinates": [ [ -96.722109944999843, 17.067572645 ], [ -96.722109944999843, 17.065499993 ] ] } },
{ "type": "Feature", "properties": { "id": 135, "left": -96.72208294499984, "top": 17.067572644999998, "right": -96.72208294499984, "bottom": 17.065499993 }, "geometry": { "type": "LineString", "coordinates": [ [ -96.72208294499984, 17.067572645 ], [ -96.72208294499984, 17.065499993 ] ] } },
{ "type": "Feature", "properties": { "id": 136, "left": -96.722055944999838, "top": 17.067572644999998, "right": -96.722055944999838, "bottom": 17.065499993 }, "geometry": { "type": "LineString", "coordinates": [ [ -96.722055944999838, 17.067572645 ], [ -96.722055944999838, 17.065499993 ] ] } },
{ "type": "Feature", "properties": { "id": 137, "left": -96.722028944999835, "top": 17.067572644999998, "right": -96.722028944999835, "bottom": 17.065499993 }, "geometry": { "type": "LineString", "coordinates": [ [ -96.722028944999835, 17.067572645 ], [ -96.722028944999835, 17.065499993 ] ] } },
{ "type": "Feature", "properties": { "id": 138, "left": -96.722001944999832, "top": 17.067572644999998, "right": -96.722001944999832, "bottom": 17.065499993 }, "geometry": { "type": "LineString", "coordinates": [ [ -96.722001944999832, 17.067572645 ], [ -96.722001944999832, 17.065499993 ] ] } },
{ "type": "Feature", "properties": { "id": 139, "left": -96.721974944999829, "top": 17.067572644999998, "right": -96.721974944999829, "bottom": 17.065499993 }, "geometry": { "type": "LineString", "coordinates": [ [ -96.721974944999829, 17.067572645 ], [ -96.721974944999829, 17.065499993 ] ] } },
{ "type": "Feature", "properties": { "id": 140, "left": -96.721947944999826, "top": 17.067572644999998, "right": -96.721947944999826, "bottom": 17.065499993 }, "geometry": { "type": "LineString", "coordinates": [ [ -96.721947944999826, 17.067572645 ], [ -96.721947944999826, 17.065499993 ] ] } },
{ "type": "Feature", "properties": { "id": 141, "left": -96.721920944999823, "top": 17.067572644999998, "right": -96.721920944999823, "bottom": 17.065499993 }, "geometry": { "type": "LineString", "coordinates": [ [ -96.721920944999823, 17.067572645 ], [ -96.721920944999823, 17.065499993 ] ] } },
{ "type": "Feature", "properties": { "id": 142, "left": -96.72189394499982, "top": 17.067572644999998, "right": -96.72189394499982, "bottom": 17.065499993 }, "geometry": { "type": "LineString", "coordinates": [ [ -96.72189394499982, 17.067572645 ], [ -96.72189394499982, 17.065499993 ] ] } },
{ "type": "Feature", "properties": { "id": 143, "left": -96.721866944999817, "top": 17.067572644999998, "right": -96.721866944999817, "bottom": 17.065499993 }, "geometry": { "type": "LineString", "coordinates": [ [ -96.721866944999817, 17.067572645 ], [ -96.721866944999817, 17.065499993 ] ] } },
{ "type": "Feature", "properties": { "id": 144, "left": -96.721839944999815, "top": 17.067572644999998, "right": -96.721839944999815, "bottom": 17.065499993 }, "geometry": { "type": "LineString", "coordinates": [ [ -96.721839944999815, 17.067572645 ], [ -96.721839944999815, 17.065499993 ] ] } },
{ "type": "Feature", "properties": { "id": 145, "left": -96.721812944999812, "top": 17.067572644999998, "right": -96.721812944999812, "bottom": 17.065499993 }, "geometry": { "type": "LineString", "coordinates": [ [ -96.721812944999812, 17.067572645 ], [ -96.721812944999812, 17.065499993 ] ] } },
{ "type": "Feature", "properties": { "id": 146, "left": -96.721785944999809, "top": 17.067572644999998, "right": -96.721785944999809, "bottom": 17.065499993 }, "geometry": { "type": "LineString", "coordinates": [ [ -96.721785944999809, 17.067572645 ], [ -96.721785944999809, 17.065499993 ] ] } },
{ "type": "Feature", "properties": { "id": 147, "left": -96.721758944999806, "top": 17.067572644999998, "right": -96.721758944999806, "bottom": 17.065499993 }, "geometry": { "type": "LineString", "coordinates": [ [ -96.721758944999806, 17.067572645 ], [ -96.721758944999806, 17.065499993 ] ] } },
{ "type": "Feature", "properties": { "id": 148, "left": -96.721731944999803, "top": 17.067572644999998, "right": -96.721731944999803, "bottom": 17.065499993 }, "geometry": { "type": "LineString", "coordinates": [ [ -96.721731944999803, 17.067572645 ], [ -96.721731944999803, 17.065499993 ] ] } },
{ "type": "Feature", "properties": { "id": 149, "left": -96.7217049449998, "top": 17.067572644999998, "right": -96.7217049449998, "bottom": 17.065499993 }, "geometry": { "type": "LineString", "coordinates": [ [ -96.7217049449998, 17.067572645 ], [ -96.7217049449998, 17.065499993 ] ] } },
{ "type": "Feature", "properties": { "id": 150, "left": -96.721677944999797, "top": 17.067572644999998, "right": -96.721677944999797, "bottom": 17.065499993 }, "geometry": { "type": "LineString", "coordinates": [ [ -96.721677944999797, 17.067572645 ], [ -96.721677944999797, 17.065499993 ] ] } },
{ "type": "Feature", "properties": { "id": 151, "left": -96.721650944999794, "top": 17.067572644999998, "right": -96.721650944999794, "bottom": 17.065499993 }, "geometry": { "type": "LineString", "coordinates": [ [ -96.721650944999794, 17.067572645 ], [ -96.721650944999794, 17.065499993 ] ] } },
{ "type": "Feature", "properties": { "id": 152, "left": -96.721623944999791, "top": 17.067572644999998, "right": -96.721623944999791, "bottom": 17.065499993 }, "geometry": { "type": "LineString", "coordinates": [ [ -96.721623944999791, 17.067572645 ], [ -96.721623944999791, 17.065499993 ] ] } },
{ "type": "Feature", "properties": { "id": 153, "left": -96.721596944999789, "top": 17.067572644999998, "right": -96.721596944999789, "bottom": 17.065499993 }, "geometry": { "type": "LineString", "coordinates": [ [ -96.721596944999789, 17.067572645 ], [ -96.721596944999789, 17.065499993 ] ] } },
{ "type": "Feature", "properties": { "id": 154, "left": -96.721569944999786, "top": 17.067572644999998, "right": -96.721569944999786, "bottom": 17.065499993 }, "geometry": { "type": "LineString", "coordinates": [ [ -96.721569944999786, 17.067572645 ], [ -96.721569944999786, 17.065499993 ] ] } }
]
}
