{
"type": "FeatureCollection",
"name": "Canteras_CalleAccesoNorte",
"crs": { "type": "name", "properties": { "name": "urn:ogc:def:crs:OGC:1.3:CRS84" } },
"features": [
{ "type": "Feature", "properties": { "fid": null }, "geometry": { "type": "Polygon", "coordinates": [ [ [ -96.705433217291045, 17.067910460953453 ], [ -96.70538027209497, 17.067923194608206 ], [ -96.70534709757338, 17.067866563354173 ], [ -96.705341065842177, 17.067811607581032 ], [ -96.705164470156561, 17.06708344358691 ], [ -96.705018368223065, 17.066549970472025 ], [ -96.704995916779112, 17.06644692839739 ], [ -96.704988209567077, 17.066256426220381 ], [ -96.704945317256332, 17.066079495438562 ], [ -96.704881648982578, 17.065710219450747 ], [ -96.704945987448681, 17.065602988673884 ], [ -96.704945987448681, 17.065602988673884 ], [ -96.70499960283712, 17.065518544437108 ], [ -96.705050537456131, 17.065499108858802 ], [ -96.705185916311919, 17.065424717507355 ], [ -96.705264328817492, 17.065384505966033 ], [ -96.705265669202205, 17.065384505966033 ], [ -96.705380942287363, 17.065278615573888 ], [ -96.70538362305679, 17.065380484811904 ], [ -96.705209373044383, 17.065501119435872 ], [ -96.705209373044383, 17.065501119435872 ], [ -96.704981507643566, 17.065605669443311 ], [ -96.704962072065229, 17.065676039640621 ], [ -96.704953359564612, 17.06578930214868 ], [ -96.704977151393223, 17.0660235343769 ], [ -96.705032107166375, 17.066378736325252 ], [ -96.705104487940758, 17.066591857494267 ], [ -96.705104487940758, 17.066591857494267 ], [ -96.705142688905056, 17.066729246927125 ], [ -96.705304205262706, 17.067134713302135 ], [ -96.705259972567276, 17.067151468111017 ], [ -96.705303535070385, 17.067290197928582 ], [ -96.705299513916245, 17.067349174855856 ], [ -96.70534173603464, 17.067416864283746 ], [ -96.70534173603464, 17.067416864283746 ], [ -96.705383287960672, 17.067686281610605 ], [ -96.705433217291045, 17.067910460953453 ] ] ] } }
]
}
