{
"type": "FeatureCollection",
"name": "Matatlan_accesoEste",
"crs": { "type": "name", "properties": { "name": "urn:ogc:def:crs:OGC:1.3:CRS84" } },
"features": [
{ "type": "Feature", "properties": { "fid": 1 }, "geometry": { "type": "MultiPolygon", "coordinates": [ [ [ [ -96.36969666137189, 16.869294482306785 ], [ -96.369655485863106, 16.869303725788349 ], [ -96.369852400031007, 16.870451878240875 ], [ -96.369767808169428, 16.870517983139337 ], [ -96.369791337031586, 16.870557197909612 ], [ -96.36988657290226, 16.870507899341266 ], [ -96.369934751048589, 16.870409302204578 ], [ -96.36969666137189, 16.869294482306785 ] ] ] ] } }
]
}
